IRIDIUM 166             
1 43570U 18061B   24142.58567710  .00000060  00000+0  14223-4 0  9998
2 43570  86.3996  12.9309 0001926  86.3050 273.8366 14.34213910304950
IRIDIUM 158             
1 43571U 18061C   24142.62372206  .00000433  00000+0  14764-3 0  9991
2 43571  86.3993  12.9245 0002192  87.5280 272.6167 14.34210306304920
IRIDIUM 165             
1 43572U 18061D   24142.57933275  .00000033  00000+0  48262-5 0  9993
2 43572  86.4000  12.9746 0002137  91.2789 268.8651 14.34212943304948
IRIDIUM 155             
1 43573U 18061E   24142.61104694  .00000791  00000+0  27543-3 0  9992
2 43573  86.3994  12.8681 0001928  83.5737 276.5678 14.34215998304916
IRIDIUM 154             
1 43574U 18061F   24142.59201765  .00000205  00000+0  66231-4 0  9995
2 43574  86.3998  12.9726 0002373  83.5274 276.6191 14.34212616304963
IRIDIUM 163             
1 43575U 18061G   24142.57298422  .00000531  00000+0  18237-3 0  9994
2 43575  86.3997  12.9195 0002165  83.1272 277.0170 14.34216915304931
IRIDIUM 156             
1 43576U 18061H   24142.61738855  .00000479  00000+0  16387-3 0  9994
2 43576  86.3995  12.9071 0002060  86.4633 273.6798 14.34213360304933
IRIDIUM 164             
1 43577U 18061J   24142.59835984  .00000455  00000+0  15549-3 0  9996
2 43577  86.3999  12.9437 0002392  87.7840 272.3630 14.34212310304975
